[{"OBJECT_NAME":"SWARM B","OBJECT_ID":"2013-067A","EPOCH":"2026-03-09T22:20:48.706656","MEAN_MOTION":15.27862638,"ECCENTRICITY":0.00036996,"INCLINATION":87.749,"RA_OF_ASC_NODE":12.4162,"ARG_OF_PERICENTER":86.3179,"MEAN_ANOMALY":273.8493,"EPHEMERIS_TYPE":0,"CLASSIFICATION_TYPE":"U","NORAD_CAT_ID":39451,"ELEMENT_SET_NO":999,"REV_AT_EPOCH":66808,"BSTAR":0.00020534236,"MEAN_MOTION_DOT":5.616e-5,"MEAN_MOTION_DDOT":0},{"OBJECT_NAME":"STARLINK-31638","OBJECT_ID":"2024-071F","EPOCH":"2026-03-09T01:55:13.989792","MEAN_MOTION":15.27574897,"ECCENTRICITY":0.00015954,"INCLINATION":43.0038,"RA_OF_ASC_NODE":343.0766,"ARG_OF_PERICENTER":263.3167,"MEAN_ANOMALY":96.7503,"EPHEMERIS_TYPE":0,"CLASSIFICATION_TYPE":"U","NORAD_CAT_ID":59489,"ELEMENT_SET_NO":999,"REV_AT_EPOCH":10811,"BSTAR":-0.0001845342,"MEAN_MOTION_DOT":-5.336e-5,"MEAN_MOTION_DDOT":0}]
